     2              NAVIGATION DATA                         RINEX VERSION / TYPE
CCRINEXN V1.6.0 UX  CDDIS               28-SEP-10 15:33     PGM / RUN BY / DATE 
IGS BROADCAST EPHEMERIS FILE                                COMMENT             
    0.8382D-08  0.1490D-07 -0.5960D-07 -0.5960D-07          ION ALPHA           
    0.8397D+05  0.1638D+05 -0.1311D+06 -0.6554D+05          ION BETA            
    0.651925802231D-08 0.168753899743D-13   233472     1603 DELTA-UTC: A0,A1,T,W
    15                                                      LEAP SECONDS        
                                                            END OF HEADER       
 6 10  9 27 18  0  0.0 0.477205961943D-03-0.147792889038D-10 0.000000000000D+00
    0.680000000000D+02-0.187500000000D+02 0.555701718636D-08-0.253012650115D+01
   -0.810250639915D-06 0.618145195767D-02 0.542029738426D-05 0.515364955521D+04
    0.151200000000D+06-0.577419996262D-07 0.229753046873D+01 0.102445483208D-06
    0.934899835954D+00 0.259531250000D+03-0.948357803069D+00-0.838392065252D-08
   -0.414302971667D-10 0.100000000000D+01 0.160300000000D+04 0.000000000000D+00
    0.200000000000D+01 0.000000000000D+00-0.512227416039D-08 0.680000000000D+02
    0.147570000000D+06 0.400000000000D+01 0.000000000000D+00 0.000000000000D+00
 7 10  9 27 18  0  0.0-0.168476253748D-05 0.227373675443D-12 0.000000000000D+00
    0.600000000000D+02-0.733750000000D+02 0.401373861690D-08 0.182936940286D-01
   -0.378862023354D-05 0.409550091717D-02 0.910833477974D-05 0.515369409943D+04
    0.151200000000D+06 0.540167093277D-07 0.259327757471D+00 0.167638063431D-07
    0.973024534400D+00 0.209343750000D+03 0.310200858025D+01-0.785461289044D-08
    0.807176479283D-10 0.100000000000D+01 0.160300000000D+04 0.000000000000D+00
    0.200000000000D+01 0.000000000000D+00-0.102445483208D-07 0.600000000000D+02
    0.144018000000D+06 0.400000000000D+01 0.000000000000D+00 0.000000000000D+00
 8 10  9 27 18  0  0.0 0.676233321428D-05 0.113686837722D-12 0.000000000000D+00
    0.830000000000D+02-0.621250000000D+02 0.357336316092D-08-0.572963133140D+00
   -0.334344804287D-05 0.114948269911D-01 0.946410000324D-05 0.515366071892D+04
    0.151200000000D+06 0.217929482460D-06 0.329752981981D+00-0.100582838059D-06
    0.994486108772D+00 0.210000000000D+03 0.314034811846D+01-0.763138974236D-08
    0.140362985124D-09 0.100000000000D+01 0.160300000000D+04 0.000000000000D+00
    0.280000000000D+01 0.000000000000D+00-0.372529029846D-08 0.830000000000D+02
    0.144018000000D+06 0.400000000000D+01 0.000000000000D+00 0.000000000000D+00
 9 10  9 27 18  0  0.0 0.330298207700D-04 0.227373675443D-11 0.000000000000D+00
    0.430000000000D+02-0.848750000000D+02 0.389694809755D-08-0.702418668934D+00
   -0.439397990704D-05 0.170259112492D-01 0.970996916294D-05 0.515370722389D+04
    0.151200000000D+06-0.163912773132D-06 0.229077860732D+00 0.130385160446D-06
    0.982073828186D+00 0.210968750000D+03 0.155088774383D+01-0.804462096937D-08
    0.105718690746D-09 0.100000000000D+01 0.160300000000D+04 0.000000000000D+00
    0.200000000000D+01 0.000000000000D+00-0.558793544769D-08 0.430000000000D+02
    0.144018000000D+06 0.400000000000D+01 0.000000000000D+00 0.000000000000D+00
10 10  9 27 18  0  0.0-0.536073930562D-04-0.113686837722D-11 0.000000000000D+00
    0.560000000000D+02 0.107375000000D+03 0.459733451308D-08-0.278228545093D+01
    0.553205609322D-05 0.936685199849D-02 0.586919486523D-05 0.515352454948D+04
    0.151200000000D+06 0.223517417908D-07-0.181780848062D+01-0.521540641785D-07
    0.951640750697D+00 0.262187500000D+03 0.664252682550D+00-0.806997935143D-08
    0.180721812515D-09 0.100000000000D+01 0.160300000000D+04 0.000000000000D+00
    0.280000000000D+01 0.000000000000D+00-0.279396772385D-08 0.560000000000D+02
    0.144018000000D+06 0.400000000000D+01 0.000000000000D+00 0.000000000000D+00
11 10  9 27 18  0  0.0-0.925739295781D-04-0.261479726760D-11 0.000000000000D+00
    0.280000000000D+02-0.978125000000D+01 0.635669335322D-08-0.110558702585D+00
   -0.411644577980D-06 0.112252495019D-01 0.890716910362D-05 0.515377138901D+04
    0.151200000000D+06-0.465661287308D-07-0.312811319767D+01 0.128522515297D-06
    0.888665686664D+00 0.165812500000D+03 0.847668801654D+00-0.901180394924D-08
   -0.511449875369D-09 0.100000000000D+01 0.160300000000D+04 0.000000000000D+00
    0.200000000000D+01 0.000000000000D+00-0.116415321827D-07 0.280000000000D+02
    0.146388000000D+06 0.400000000000D+01 0.000000000000D+00 0.000000000000D+00
13 10  9 27 18  0  0.0 0.296361744404D-03-0.909494701773D-12 0.000000000000D+00
    0.500000000000D+01-0.350937500000D+02 0.379980113411D-08 0.243611530091D+01
   -0.172853469849D-05 0.432362407446D-02 0.308267772198D-05 0.515370171738D+04
    0.151200000000D+06 0.428408384323D-07-0.719180206434D+00 0.428408384323D-07
    0.991883949091D+00 0.334750000000D+03 0.180999742849D+01-0.786068457192D-08
   -0.169649923743D-09 0.100000000000D+01 0.160300000000D+04 0.000000000000D+00
    0.200000000000D+01 0.000000000000D+00-0.107102096081D-07 0.500000000000D+01
    0.144018000000D+06 0.400000000000D+01 0.000000000000D+00 0.000000000000D+00
14 10  9 27 18  0  0.0 0.927038490772D-04 0.363797880709D-11 0.000000000000D+00
    0.530000000000D+02-0.290625000000D+02 0.396266506091D-08 0.238508629864D+01
   -0.150129199028D-05 0.567509664688D-02 0.281073153019D-05 0.515357659149D+04
    0.151200000000D+06-0.186264514923D-08-0.741776835537D+00-0.633299350738D-07
    0.985051059582D+00 0.336687500000D+03-0.212036292917D+01-0.802569144512D-08
   -0.108933108930D-09 0.100000000000D+01 0.160300000000D+04 0.000000000000D+00
    0.200000000000D+01 0.000000000000D+00-0.884756445885D-08 0.530000000000D+02
    0.144018000000D+06 0.400000000000D+01 0.000000000000D+00 0.000000000000D+00
15 10  9 27 18  0  0.0-0.203372910619D-03 0.511590769747D-11 0.000000000000D+00
    0.450000000000D+02-0.263125000000D+02 0.484341589058D-08 0.225533122451D+01
   -0.135600566864D-05 0.275886489544D-02 0.184215605259D-05 0.515382124901D+04
    0.151200000000D+06-0.316649675369D-07-0.809779255585D+00 0.000000000000D+00
    0.952450500724D+00 0.340000000000D+03-0.214234676968D+00-0.850249737283D-08
   -0.156792245853D-09 0.100000000000D+01 0.160300000000D+04 0.000000000000D+00
    0.200000000000D+01 0.000000000000D+00-0.977888703346D-08 0.450000000000D+02
    0.144018000000D+06 0.400000000000D+01 0.000000000000D+00 0.000000000000D+00
16 10  9 27 18  0  0.0-0.112335197628D-03-0.341060513165D-11 0.000000000000D+00
    0.380000000000D+02 0.253125000000D+01 0.439625455022D-08-0.233601036807D+01
    0.137835741043D-06 0.582614401355D-02 0.826641917229D-05 0.515366068649D+04
    0.151200000000D+06-0.115483999252D-06 0.133090136890D+01-0.726431608200D-07
    0.973047916220D+00 0.231468750000D+03-0.158186688036D+00-0.782675458717D-08
    0.536808074497D-09 0.100000000000D+01 0.160300000000D+04 0.000000000000D+00
    0.200000000000D+01 0.000000000000D+00-0.102445483208D-07 0.380000000000D+02
    0.144840000000D+06 0.400000000000D+01 0.000000000000D+00 0.000000000000D+00
17 10  9 27 18  0  0.0 0.172286294401D-03 0.125055521494D-11 0.000000000000D+00
    0.104000000000D+03-0.285625000000D+02 0.490770442559D-08 0.291478777549D+01
   -0.151246786118D-05 0.560816039797D-02 0.592693686485D-05 0.515365527344D+04
    0.151200000000D+06-0.782310962677D-07 0.237431664976D+01-0.856816768646D-07
    0.960515609056D+00 0.264281250000D+03-0.250889073111D+01-0.805283543292D-08
   -0.241795786051D-09 0.100000000000D+01 0.160300000000D+04 0.000000000000D+00
    0.280000000000D+01 0.000000000000D+00-0.102445483208D-07 0.104000000000D+03
    0.145758000000D+06 0.400000000000D+01 0.000000000000D+00 0.000000000000D+00
18 10  9 27 18  0  0.0 0.955471768975D-04 0.227373675443D-11 0.000000000000D+00
    0.810000000000D+02 0.115562500000D+03 0.490341856008D-08-0.200933946775D+01
    0.595487654209D-05 0.118594688829D-01 0.604242086411D-05 0.515373368645D+04
    0.151200000000D+06 0.100582838059D-06-0.181972867471D+01-0.180676579475D-06
    0.935592725158D+00 0.251593750000D+03-0.229333182947D+01-0.817998380143D-08
    0.207865807900D-09 0.100000000000D+01 0.160300000000D+04 0.000000000000D+00
    0.200000000000D+01 0.000000000000D+00-0.107102096081D-07 0.810000000000D+02
    0.144018000000D+06 0.400000000000D+01 0.000000000000D+00 0.000000000000D+00
20 10  9 27 18  0  0.0 0.507161021233D-04-0.341060513165D-12 0.000000000000D+00
    0.129000000000D+03 0.967812500000D+02 0.498270754977D-08-0.163147164118D+01
    0.497512519360D-05 0.422431505285D-02 0.617839396000D-05 0.515382576180D+04
    0.151200000000D+06 0.113621354103D-06-0.187371093261D+01 0.689178705216D-07
    0.935596749646D+00 0.248812500000D+03 0.127665697071D+01-0.833856162028D-08
    0.196436753808D-10 0.100000000000D+01 0.160300000000D+04 0.000000000000D+00
    0.200000000000D+01 0.000000000000D+00-0.791624188423D-08 0.129000000000D+03
    0.144018000000D+06 0.400000000000D+01 0.000000000000D+00 0.000000000000D+00
21 10  9 27 18  0  0.0-0.911718234420D-04-0.272848410532D-11 0.000000000000D+00
    0.580000000000D+02 0.240625000000D+02 0.508521180720D-08-0.842377808783D+00
    0.121630728245D-05 0.168643392390D-01 0.104196369648D-04 0.515363383484D+04
    0.151200000000D+06 0.271946191788D-06-0.287574462928D+01 0.244006514549D-06
    0.932696221970D+00 0.163281250000D+03-0.244336671665D+01-0.829677393455D-08
   -0.501092278782D-09 0.100000000000D+01 0.160300000000D+04 0.000000000000D+00
    0.200000000000D+01 0.000000000000D+00-0.121071934700D-07 0.580000000000D+02
    0.144018000000D+06 0.400000000000D+01 0.000000000000D+00 0.000000000000D+00
